[{"OBJECT_NAME":"COSMOS 2580","OBJECT_ID":"2024-230A","EPOCH":"2026-03-09T20:11:18.024576","MEAN_MOTION":13.96672575,"ECCENTRICITY":0.0006756,"INCLINATION":67.1461,"RA_OF_ASC_NODE":292.3144,"ARG_OF_PERICENTER":270.0052,"MEAN_ANOMALY":90.0258,"EPHEMERIS_TYPE":0,"CLASSIFICATION_TYPE":"U","NORAD_CAT_ID":62216,"ELEMENT_SET_NO":999,"REV_AT_EPOCH":6426,"BSTAR":3.1709e-5,"MEAN_MOTION_DOT":-3.1e-7,"MEAN_MOTION_DDOT":0},{"OBJECT_NAME":"COSMOS 1275 DEB","OBJECT_ID":"1981-053PD","EPOCH":"2026-03-08T12:23:04.973856","MEAN_MOTION":13.97598534,"ECCENTRICITY":0.00334156,"INCLINATION":82.9208,"RA_OF_ASC_NODE":104.2329,"ARG_OF_PERICENTER":102.5443,"MEAN_ANOMALY":257.9467,"EPHEMERIS_TYPE":0,"CLASSIFICATION_TYPE":"U","NORAD_CAT_ID":39967,"ELEMENT_SET_NO":999,"REV_AT_EPOCH":59738,"BSTAR":0.00089405171,"MEAN_MOTION_DOT":1.281e-5,"MEAN_MOTION_DDOT":0}]
